SAUDISAT 5A             
1 43831U 18102A   26160.17541038  .00004795  00000+0  17818-3 0  9997
2 43831  97.3071 221.9110 0010426 154.0997 206.0766 15.27963887414453
SAUDISAT 5B             
1 43833U 18102C   26160.19561184  .00004483  00000+0  16543-3 0  9993
2 43833  97.3179 224.9860 0011068 156.6200 203.5545 15.28225174414578
GAOFEN-10R              
1 44622U 19066A   26160.19239208  .00001074  00000+0  13876-3 0  9998
2 44622  98.0494 113.7136 0006125 149.7975 210.3592 14.83042952361192
CARTOSAT-3              
1 44804U 19081A   26160.18780304  .00004407  00000+0  21211-3 0  9999
2 44804  97.4304 222.1831 0012395 175.4515 184.6835 15.19225716362258
GAOFEN-12 01            
1 44819U 19082A   26160.17191559  .00000346  00000+0  51874-4 0  9990
2 44819  97.8106 166.7630 0002470  79.6391 280.5100 14.80451835352900
CSG-1                   
1 44873U 19092A   26160.22011708  .00000397  00000+0  56418-4 0  9999
2 44873  97.8887 343.9382 0001439  90.5819 269.5559 14.82158161350293
NEMO-HD                 
1 46277U 20061F   26160.16087187  .00009527  00000+0  20783-3 0  9993
2 46277  97.1924 222.1954 0002546  89.2477 270.9063 15.44431241320741
SENTINEL-6A             
1 46984U 20086A   26160.19981438 -.00000032  00000+0  12694-3 0  9995
2 46984  66.0386 151.6422 0007951 270.2626  89.7478 12.80929807259308
CAS500-1                
1 47932U 21022A   26160.16405495  .00005016  00000+0  23438-3 0  9995
2 47932  97.3909  55.5794 0004057 334.2219  25.8813 15.20240786289549
GAOFEN-12 02            
1 48079U 21026A   26160.24971270  .00000343  00000+0  52012-4 0  9999
2 48079  97.9920 158.4629 0003342 257.1528 102.9311 14.80289883280584
PLEIADES NEO 3          
1 48268U 21034A   26160.21678691  .00000752  00000+0  10216-3 0  9999
2 48268  97.8925 235.0981 0001364  87.2855 272.8514 14.81669257276471
PLEIADES NEO 4          
1 49070U 21073E   26159.98043271  .00001403  00000+0  18495-3 0  9997
2 49070  97.8928 234.8608 0001396  84.4017 275.7355 14.81666705260151
LANDSAT 9               
1 49260U 21088A   26160.09344916  .00000265  00000+0  68848-4 0  9991
2 49260  98.2279 230.3685 0001448  88.2572 271.8792 14.57105037249820
CSG-2                   
1 51444U 22008A   26160.18634777 -.00000042  00000+0  12905-5 0  9996
2 51444  97.8889 343.9000 0001383  82.2186 277.9184 14.82148796235402
GAOFEN-12 03            
1 52912U 22069A   26160.21058084  .00001050  00000+0  14549-3 0  9992
2 52912  97.8286  48.2815 0001742 109.4333 250.7067 14.80023658213433
SWOT                    
1 54754U 22173A   26160.19973337  .00000047  00000+0  33600-4 0  9993
2 54754  77.6112  46.0931 0000209  95.8715 264.2461 14.00168582178039
GAOFEN-12 04            
1 57654U 23123A   26160.16071237  .00000881  00000+0  12270-3 0  9991
2 57654  97.9126  78.2937 0001783  86.5961 273.5455 14.80212910151447
PARS 1                  
1 59065U 24039Q   26160.22200394  .00009657  00000+0  20247-3 0  9994
2 59065  97.4819 140.8920 0010987 135.3464 224.8672 15.45558714127411
RESURS-P 4              
1 59371U 24061A   26160.16449809  .00002713  00000+0  90054-4 0  9998
2 59371  97.2745 108.2033 0001561 131.7881 228.3494 15.32084846122536
LEGION 1                
1 59625U 24081A   26160.11182524  .00003200  00000+0  16701-3 0  9993
2 59625  97.5017 238.0553 0010278  44.0441 316.1609 15.16610014116312
LEGION 2                
1 59626U 24081B   26160.20767558  .00003150  00000+0  16452-3 0  9997
2 59626  97.5015 238.2478 0011547  11.9666 348.1839 15.16590914116339
ALOS-4 (DAICHI-4)       
1 60182U 24123A   26160.17783714  .00001293  00000+0  17996-3 0  9991
2 60182  97.9241 257.4640 0001629  97.5197 262.6200 14.79468831104694
LEGION 3                
1 60452U 24146A   26160.09187678  .00003814  00000+0  20875-3 0  9995
2 60452  45.0012  73.9690 0006941 119.1131 241.0443 15.15976347100795
LEGION 4                
1 60453U 24146B   26160.16080917  .00002876  00000+0  16060-3 0  9990
2 60453  45.0003 165.5106 0014084 266.6146  93.3121 15.15974810 99653
SENTINEL-2C             
1 60989U 24157A   26160.20051238  .00000082  00000+0  47794-4 0  9991
2 60989  98.5691 235.0952 0001158  79.8088 280.3225 14.30815637 91845
IONOSFERA-M 1           
1 61735U 24199A   26160.17663172  .00000030  00000+0  33209-4 0  9998
2 61735  98.7184  33.4331 0001712 121.0473 239.0874 14.22752762126568
IONOSFERA-M 2           
1 61736U 24199B   26160.14062078  .00000036  00000+0  35492-4 0  9996
2 61736  98.7183  33.3082 0001365  46.2972 313.8319 14.22756001129687
PRSC-EO1                
1 62725U 25012A   26160.21391741  .00006152  00000+0  30870-3 0  9999
2 62725  97.4225 232.8294 0004217 288.5367  71.5409 15.17667348 76980
BIOMASS                 
1 63772U 25090A   26160.12435029  .00000688  00000+0  12983-3 0  9999
2 63772  98.0743 347.5583 0001386  90.5029 269.6334 14.67531243 59504
GOSAT-GW (IBUKI GW)     
1 64694U 25141A   26160.14473573  .00000689  00000+0  12989-3 0  9995
2 64694  98.0569  97.5927 0001430  84.0290 276.1077 14.67551937 50663
IONOSFERA-M 3           
1 64876U 25155A   26160.15111174  .00000044  00000+0  39860-4 0  9992
2 64876  98.6021 122.2586 0000521 173.7406 186.3778 14.21485090 45262
