OBJECT_NAME,OBJECT_ID,EPOCH,MEAN_MOTION,ECCENTRICITY,INCLINATION,RA_OF_ASC_NODE,ARG_OF_PERICENTER,MEAN_ANOMALY,EPHEMERIS_TYPE,CLASSIFICATION_TYPE,NORAD_CAT_ID,ELEMENT_SET_NO,REV_AT_EPOCH,BSTAR,MEAN_MOTION_DOT,MEAN_MOTION_DDOT
SAUDISAT 5A,2018-102A,2026-06-09T04:12:35.456832,15.27963887,.0010426,97.3071,221.9110,154.0997,206.0766,0,U,43831,999,41445,.17818E-3,.4795E-4,0
SAUDISAT 5B,2018-102C,2026-06-09T04:41:40.862976,15.28225174,.0011068,97.3179,224.9860,156.6200,203.5545,0,U,43833,999,41457,.16543E-3,.4483E-4,0
GAOFEN-10R,2019-066A,2026-06-09T04:37:02.675712,14.83042952,.0006125,98.0494,113.7136,149.7975,210.3592,0,U,44622,999,36119,.13876E-3,.1074E-4,0
CARTOSAT-3,2019-081A,2026-06-09T04:30:26.182656,15.19225716,.0012395,97.4304,222.1831,175.4515,184.6835,0,U,44804,999,36225,.21211E-3,.4407E-4,0
GAOFEN-12 01,2019-082A,2026-06-09T04:07:33.506976,14.80451835,.000247,97.8106,166.7630,79.6391,280.5100,0,U,44819,999,35290,.51874E-4,.346E-5,0
CSG-1,2019-092A,2026-06-09T05:16:58.115712,14.82158161,.0001439,97.8887,343.9382,90.5819,269.5559,0,U,44873,999,35029,.56418E-4,.397E-5,0
NEMO-HD,2020-061F,2026-06-09T03:51:39.329568,15.44431241,.0002546,97.1924,222.1954,89.2477,270.9063,0,U,46277,999,32074,.20783E-3,.9527E-4,0
SENTINEL-6A,2020-086A,2026-06-09T04:47:43.962432,12.80929807,.0007951,66.0386,151.6422,270.2626,89.7478,0,U,46984,999,25930,.12694E-3,-.32E-6,0
CAS500-1,2021-022A,2026-06-09T03:56:14.347680,15.20240786,.0004057,97.3909,55.5794,334.2219,25.8813,0,U,47932,999,28954,.23438E-3,.5016E-4,0
GAOFEN-12 02,2021-026A,2026-06-09T05:59:35.177280,14.80289883,.0003342,97.9920,158.4629,257.1528,102.9311,0,U,48079,999,28058,.52012E-4,.343E-5,0
PLEIADES NEO 3,2021-034A,2026-06-09T05:12:10.389024,14.81669257,.0001364,97.8925,235.0981,87.2855,272.8514,0,U,48268,999,27647,.10216E-3,.752E-5,0
PLEIADES NEO 4,2021-073E,2026-06-08T23:31:49.386144,14.81666705,.0001396,97.8928,234.8608,84.4017,275.7355,0,U,49070,999,26015,.18495E-3,.1403E-4,0
LANDSAT 9,2021-088A,2026-06-09T02:14:34.007424,14.57105037,.0001448,98.2279,230.3685,88.2572,271.8792,0,U,49260,999,24982,.68848E-4,.265E-5,0
CSG-2,2022-008A,2026-06-09T04:28:20.447328,14.82148796,.0001383,97.8889,343.9000,82.2186,277.9184,0,U,51444,999,23540,.12905E-5,-.42E-6,0
GAOFEN-12 03,2022-069A,2026-06-09T05:03:14.184576,14.80023658,.0001742,97.8286,48.2815,109.4333,250.7067,0,U,52912,999,21343,.14549E-3,.105E-4,0
SWOT,2022-173A,2026-06-09T04:47:36.963168,14.00168582,.0000209,77.6112,46.0931,95.8715,264.2461,0,U,54754,999,17803,.336E-4,.47E-6,0
GAOFEN-12 04,2023-123A,2026-06-09T03:51:25.548768,14.80212910,.0001783,97.9126,78.2937,86.5961,273.5455,0,U,57654,999,15144,.1227E-3,.881E-5,0
PARS 1,2024-039Q,2026-06-09T05:19:41.140416,15.45558714,.0010987,97.4819,140.8920,135.3464,224.8672,0,U,59065,999,12741,.20247E-3,.9657E-4,0
RESURS-P 4,2024-061A,2026-06-09T03:56:52.634976,15.32084846,.0001561,97.2745,108.2033,131.7881,228.3494,0,U,59371,999,12253,.90054E-4,.2713E-4,0
LEGION 1,2024-081A,2026-06-09T02:41:01.700736,15.16610014,.0010278,97.5017,238.0553,44.0441,316.1609,0,U,59625,999,11631,.16701E-3,.32E-4,0
LEGION 2,2024-081B,2026-06-09T04:59:03.170112,15.16590914,.0011547,97.5015,238.2478,11.9666,348.1839,0,U,59626,999,11633,.16452E-3,.315E-4,0
ALOS-4 (DAICHI-4),2024-123A,2026-06-09T04:16:05.128896,14.79468831,.0001629,97.9241,257.4640,97.5197,262.6200,0,U,60182,999,10469,.17996E-3,.1293E-4,0
LEGION 3,2024-146A,2026-06-09T02:12:18.153792,15.15976347,.0006941,45.0012,73.9690,119.1131,241.0443,0,U,60452,999,10079,.20875E-3,.3814E-4,0
LEGION 4,2024-146B,2026-06-09T03:51:33.912288,15.15974810,.0014084,45.0003,165.5106,266.6146,93.3121,0,U,60453,999,9965,.1606E-3,.2876E-4,0
SENTINEL-2C,2024-157A,2026-06-09T04:48:44.269632,14.30815637,.0001158,98.5691,235.0952,79.8088,280.3225,0,U,60989,999,9184,.47794E-4,.82E-6,0
IONOSFERA-M 1,2024-199A,2026-06-09T04:14:20.980608,14.22752762,.0001712,98.7184,33.4331,121.0473,239.0874,0,U,61735,999,12656,.33209E-4,.3E-6,0
IONOSFERA-M 2,2024-199B,2026-06-09T03:22:29.635392,14.22756001,.0001365,98.7183,33.3082,46.2972,313.8319,0,U,61736,999,12968,.35492E-4,.36E-6,0
PRSC-EO1,2025-012A,2026-06-09T05:08:02.464224,15.17667348,.0004217,97.4225,232.8294,288.5367,71.5409,0,U,62725,999,7698,.3087E-3,.6152E-4,0
BIOMASS,2025-090A,2026-06-09T02:59:03.865056,14.67531243,.0001386,98.0743,347.5583,90.5029,269.6334,0,U,63772,999,5950,.12983E-3,.688E-5,0
GOSAT-GW (IBUKI GW),2025-141A,2026-06-09T03:28:25.167072,14.67551937,.000143,98.0569,97.5927,84.0290,276.1077,0,U,64694,999,5066,.12989E-3,.689E-5,0
IONOSFERA-M 3,2025-155A,2026-06-09T03:37:36.054336,14.21485090,.0000521,98.6021,122.2586,173.7406,186.3778,0,U,64876,999,4526,.3986E-4,.44E-6,0
